HULIANWANG DIGUI-33     
1 64286U 25121D   26064.64426408  .00000022  00000+0  17338-4 0  9998
2 64286  86.4968  48.5254 0002078  77.6976 282.4391 13.24425378 36452
HULIANWANG DIGUI-34     
1 64287U 25121E   26064.56121322  .00000022  00000+0  17403-4 0  9990
2 64287  86.4945  48.4852 0002211  73.7767 286.3610 13.24424311 36447
HULIANWANG DIGUI-35     
1 64956U 25159A   26064.60322568  .00000057  00000+0  99534-4 0  9997
2 64956  86.4984 317.4450 0001275  72.3295 287.7978 13.24417242 29412
HULIANWANG DIGUI-36     
1 64957U 25159B   26064.67102564  .00000055  00000+0  93212-4 0  9992
2 64957  86.5004 317.4599 0001357  71.1574 288.9707 13.24419826 29423
HULIANWANG DIGUI-37     
1 64958U 25159C   26064.66348381  .00000070  00000+0  12955-3 0  9992
2 64958  86.4945 317.3243 0001442  68.5301 291.5987 13.24419440 29427
HULIANWANG DIGUI-38     
1 64959U 25159D   26064.65594874  .00000084  00000+0  16257-3 0  9996
2 64959  86.5004 317.4528 0001424  70.8585 289.2703 13.24419612 29423
HULIANWANG DIGUI-39     
1 64960U 25159E   26064.64838133  .00000098  00000+0  19503-3 0  9998
2 64960  86.4980 317.3951 0001428  72.4542 287.6748 13.24419776 29423
HULIANWANG DIGUI-40     
1 65043U 25162A   26064.64427708 -.00000069  00000+0  11805-3 0  9993
2 65043  49.9988 277.3390 0001032  75.9268 284.1719 13.29332295 29575
HULIANWANG DIGUI-41     
1 65044U 25162B   26064.63592471 -.00000072  00000+0  11266-3 0  9998
2 65044  49.9999 277.3129 0001072  75.1048 284.9943 13.29332672 29587
HULIANWANG DIGUI-42     
1 65045U 25162C   26064.62754344 -.00000074  00000+0  10816-3 0  9999
2 65045  49.9964 277.2074 0001011  76.7099 283.3886 13.29332078 29583
HULIANWANG DIGUI-43     
1 65046U 25162D   26064.61916882 -.00000060  00000+0  13719-3 0  9996
2 65046  49.9981 277.1958 0001004  75.0095 285.0888 13.29333177 29585
HULIANWANG DIGUI-44     
1 65047U 25162E   26064.61052188 -.00000060  00000+0  13737-3 0  9997
2 65047  50.0008 277.1987 0000765 354.6792   5.4072 13.29340762 29592
HULIANWANG DIGUI-45     
1 65048U 25162F   26064.60249656 -.00000074  00000+0  10785-3 0  9990
2 65048  50.0038 277.2108 0001055  76.2885 283.8104 13.29332992 29588
HULIANWANG DIGUI-46     
1 65049U 25162G   26064.59414113 -.00000081  00000+0  93233-4 0  9999
2 65049  50.0055 277.2001 0001055  77.9985 282.1006 13.29332866 29582
HULIANWANG DIGUI-47     
1 65050U 25162H   26064.66096368 -.00000064  00000+0  12884-3 0  9990
2 65050  50.0020 276.8247 0001040  79.6704 280.4285 13.29332801 29595
HULIANWANG DIGUI-48     
1 65051U 25162J   26064.57745323 -.00000062  00000+0  13368-3 0  9999
2 65051  50.0030 277.0682 0001030  76.9524 283.1464 13.29332279 29589
