[{"OBJECT_NAME":"HULIANWANG DIGUI-33","OBJECT_ID":"2025-121D","EPOCH":"2026-03-05T15:27:44.416512","MEAN_MOTION":13.24425378,"ECCENTRICITY":0.00020783,"INCLINATION":86.4968,"RA_OF_ASC_NODE":48.5254,"ARG_OF_PERICENTER":77.6976,"MEAN_ANOMALY":282.4391,"EPHEMERIS_TYPE":0,"CLASSIFICATION_TYPE":"U","NORAD_CAT_ID":64286,"ELEMENT_SET_NO":999,"REV_AT_EPOCH":3645,"BSTAR":1.7338103e-5,"MEAN_MOTION_DOT":2.2e-7,"MEAN_MOTION_DDOT":0},{"OBJECT_NAME":"HULIANWANG DIGUI-34","OBJECT_ID":"2025-121E","EPOCH":"2026-03-05T13:28:08.822208","MEAN_MOTION":13.24424311,"ECCENTRICITY":0.00022114,"INCLINATION":86.4945,"RA_OF_ASC_NODE":48.4852,"ARG_OF_PERICENTER":73.7767,"MEAN_ANOMALY":286.361,"EPHEMERIS_TYPE":0,"CLASSIFICATION_TYPE":"U","NORAD_CAT_ID":64287,"ELEMENT_SET_NO":999,"REV_AT_EPOCH":3644,"BSTAR":1.740334e-5,"MEAN_MOTION_DOT":2.2e-7,"MEAN_MOTION_DDOT":0},{"OBJECT_NAME":"HULIANWANG DIGUI-35","OBJECT_ID":"2025-159A","EPOCH":"2026-03-05T14:28:38.698752","MEAN_MOTION":13.24417242,"ECCENTRICITY":0.00012757,"INCLINATION":86.4984,"RA_OF_ASC_NODE":317.445,"ARG_OF_PERICENTER":72.3295,"MEAN_ANOMALY":287.7978,"EPHEMERIS_TYPE":0,"CLASSIFICATION_TYPE":"U","NORAD_CAT_ID":64956,"ELEMENT_SET_NO":999,"REV_AT_EPOCH":2941,"BSTAR":9.9534029e-5,"MEAN_MOTION_DOT":5.7e-7,"MEAN_MOTION_DDOT":0},{"OBJECT_NAME":"HULIANWANG DIGUI-36","OBJECT_ID":"2025-159B","EPOCH":"2026-03-05T16:06:16.615296","MEAN_MOTION":13.24419826,"ECCENTRICITY":0.00013572,"INCLINATION":86.5004,"RA_OF_ASC_NODE":317.4599,"ARG_OF_PERICENTER":71.1574,"MEAN_ANOMALY":288.9707,"EPHEMERIS_TYPE":0,"CLASSIFICATION_TYPE":"U","NORAD_CAT_ID":64957,"ELEMENT_SET_NO":999,"REV_AT_EPOCH":2942,"BSTAR":9.321203e-5,"MEAN_MOTION_DOT":5.5e-7,"MEAN_MOTION_DDOT":0},{"OBJECT_NAME":"HULIANWANG DIGUI-37","OBJECT_ID":"2025-159C","EPOCH":"2026-03-05T15:55:25.001184","MEAN_MOTION":13.2441944,"ECCENTRICITY":0.00014424,"INCLINATION":86.4945,"RA_OF_ASC_NODE":317.3243,"ARG_OF_PERICENTER":68.5301,"MEAN_ANOMALY":291.5987,"EPHEMERIS_TYPE":0,"CLASSIFICATION_TYPE":"U","NORAD_CAT_ID":64958,"ELEMENT_SET_NO":999,"REV_AT_EPOCH":2942,"BSTAR":0.00012955019,"MEAN_MOTION_DOT":7.0e-7,"MEAN_MOTION_DDOT":0},{"OBJECT_NAME":"HULIANWANG DIGUI-38","OBJECT_ID":"2025-159D","EPOCH":"2026-03-05T15:44:33.971136","MEAN_MOTION":13.24419612,"ECCENTRICITY":0.0001424,"INCLINATION":86.5004,"RA_OF_ASC_NODE":317.4528,"ARG_OF_PERICENTER":70.8585,"MEAN_ANOMALY":289.2703,"EPHEMERIS_TYPE":0,"CLASSIFICATION_TYPE":"U","NORAD_CAT_ID":64959,"ELEMENT_SET_NO":999,"REV_AT_EPOCH":2942,"BSTAR":0.00016256828,"MEAN_MOTION_DOT":8.4e-7,"MEAN_MOTION_DDOT":0},{"OBJECT_NAME":"HULIANWANG DIGUI-39","OBJECT_ID":"2025-159E","EPOCH":"2026-03-05T15:33:40.146912","MEAN_MOTION":13.24419776,"ECCENTRICITY":0.00014282,"INCLINATION":86.498,"RA_OF_ASC_NODE":317.3951,"ARG_OF_PERICENTER":72.4542,"MEAN_ANOMALY":287.6748,"EPHEMERIS_TYPE":0,"CLASSIFICATION_TYPE":"U","NORAD_CAT_ID":64960,"ELEMENT_SET_NO":999,"REV_AT_EPOCH":2942,"BSTAR":0.00019502593,"MEAN_MOTION_DOT":9.8e-7,"MEAN_MOTION_DDOT":0},{"OBJECT_NAME":"HULIANWANG DIGUI-40","OBJECT_ID":"2025-162A","EPOCH":"2026-03-05T15:27:45.539712","MEAN_MOTION":13.29332295,"ECCENTRICITY":0.00010325,"INCLINATION":49.9988,"RA_OF_ASC_NODE":277.339,"ARG_OF_PERICENTER":75.9268,"MEAN_ANOMALY":284.1719,"EPHEMERIS_TYPE":0,"CLASSIFICATION_TYPE":"U","NORAD_CAT_ID":65043,"ELEMENT_SET_NO":999,"REV_AT_EPOCH":2957,"BSTAR":0.000118047,"MEAN_MOTION_DOT":-6.9e-7,"MEAN_MOTION_DDOT":0},{"OBJECT_NAME":"HULIANWANG DIGUI-41","OBJECT_ID":"2025-162B","EPOCH":"2026-03-05T15:15:43.894944","MEAN_MOTION":13.29332672,"ECCENTRICITY":0.0001072,"INCLINATION":49.9999,"RA_OF_ASC_NODE":277.3129,"ARG_OF_PERICENTER":75.1048,"MEAN_ANOMALY":284.9943,"EPHEMERIS_TYPE":0,"CLASSIFICATION_TYPE":"U","NORAD_CAT_ID":65044,"ELEMENT_SET_NO":999,"REV_AT_EPOCH":2958,"BSTAR":0.00011266077,"MEAN_MOTION_DOT":-7.2e-7,"MEAN_MOTION_DDOT":0},{"OBJECT_NAME":"HULIANWANG DIGUI-42","OBJECT_ID":"2025-162C","EPOCH":"2026-03-05T15:03:39.753216","MEAN_MOTION":13.29332078,"ECCENTRICITY":0.00010119,"INCLINATION":49.9964,"RA_OF_ASC_NODE":277.2074,"ARG_OF_PERICENTER":76.7099,"MEAN_ANOMALY":283.3886,"EPHEMERIS_TYPE":0,"CLASSIFICATION_TYPE":"U","NORAD_CAT_ID":65045,"ELEMENT_SET_NO":999,"REV_AT_EPOCH":2958,"BSTAR":0.000108159,"MEAN_MOTION_DOT":-7.4e-7,"MEAN_MOTION_DDOT":0},{"OBJECT_NAME":"HULIANWANG DIGUI-43","OBJECT_ID":"2025-162D","EPOCH":"2026-03-05T14:51:36.186048","MEAN_MOTION":13.29333177,"ECCENTRICITY":0.00010042,"INCLINATION":49.9981,"RA_OF_ASC_NODE":277.1958,"ARG_OF_PERICENTER":75.0095,"MEAN_ANOMALY":285.0888,"EPHEMERIS_TYPE":0,"CLASSIFICATION_TYPE":"U","NORAD_CAT_ID":65046,"ELEMENT_SET_NO":999,"REV_AT_EPOCH":2958,"BSTAR":0.00013719476,"MEAN_MOTION_DOT":-6.0e-7,"MEAN_MOTION_DDOT":0},{"OBJECT_NAME":"HULIANWANG DIGUI-44","OBJECT_ID":"2025-162E","EPOCH":"2026-03-05T14:39:09.090432","MEAN_MOTION":13.29340762,"ECCENTRICITY":7.654e-5,"INCLINATION":50.0008,"RA_OF_ASC_NODE":277.1987,"ARG_OF_PERICENTER":354.6792,"MEAN_ANOMALY":5.4072,"EPHEMERIS_TYPE":0,"CLASSIFICATION_TYPE":"U","NORAD_CAT_ID":65047,"ELEMENT_SET_NO":999,"REV_AT_EPOCH":2959,"BSTAR":0.0001373665,"MEAN_MOTION_DOT":-6.0e-7,"MEAN_MOTION_DDOT":0},{"OBJECT_NAME":"HULIANWANG DIGUI-45","OBJECT_ID":"2025-162F","EPOCH":"2026-03-05T14:27:35.702784","MEAN_MOTION":13.29332992,"ECCENTRICITY":0.00010552,"INCLINATION":50.0038,"RA_OF_ASC_NODE":277.2108,"ARG_OF_PERICENTER":76.2885,"MEAN_ANOMALY":283.8104,"EPHEMERIS_TYPE":0,"CLASSIFICATION_TYPE":"U","NORAD_CAT_ID":65048,"ELEMENT_SET_NO":999,"REV_AT_EPOCH":2958,"BSTAR":0.00010784738,"MEAN_MOTION_DOT":-7.4e-7,"MEAN_MOTION_DDOT":0},{"OBJECT_NAME":"HULIANWANG DIGUI-46","OBJECT_ID":"2025-162G","EPOCH":"2026-03-05T14:15:33.793632","MEAN_MOTION":13.29332866,"ECCENTRICITY":0.00010551,"INCLINATION":50.0055,"RA_OF_ASC_NODE":277.2001,"ARG_OF_PERICENTER":77.9985,"MEAN_ANOMALY":282.1006,"EPHEMERIS_TYPE":0,"CLASSIFICATION_TYPE":"U","NORAD_CAT_ID":65049,"ELEMENT_SET_NO":999,"REV_AT_EPOCH":2958,"BSTAR":9.3233303e-5,"MEAN_MOTION_DOT":-8.1e-7,"MEAN_MOTION_DDOT":0},{"OBJECT_NAME":"HULIANWANG DIGUI-47","OBJECT_ID":"2025-162H","EPOCH":"2026-03-05T15:51:47.261952","MEAN_MOTION":13.29332801,"ECCENTRICITY":0.00010401,"INCLINATION":50.002,"RA_OF_ASC_NODE":276.8247,"ARG_OF_PERICENTER":79.6704,"MEAN_ANOMALY":280.4285,"EPHEMERIS_TYPE":0,"CLASSIFICATION_TYPE":"U","NORAD_CAT_ID":65050,"ELEMENT_SET_NO":999,"REV_AT_EPOCH":2959,"BSTAR":0.00012884405,"MEAN_MOTION_DOT":-6.4e-7,"MEAN_MOTION_DDOT":0},{"OBJECT_NAME":"HULIANWANG DIGUI-48","OBJECT_ID":"2025-162J","EPOCH":"2026-03-05T13:51:31.959072","MEAN_MOTION":13.29332279,"ECCENTRICITY":0.00010304,"INCLINATION":50.003,"RA_OF_ASC_NODE":277.0682,"ARG_OF_PERICENTER":76.9524,"MEAN_ANOMALY":283.1464,"EPHEMERIS_TYPE":0,"CLASSIFICATION_TYPE":"U","NORAD_CAT_ID":65051,"ELEMENT_SET_NO":999,"REV_AT_EPOCH":2958,"BSTAR":0.00013368259,"MEAN_MOTION_DOT":-6.2e-7,"MEAN_MOTION_DDOT":0}]
